{
  "type": "FeatureCollection",
  "features": [
    {
      "type": "Feature",
      "properties": {
        "norad_id": 31088,
        "name": "FENGYUN 1C DEB",
        "group": "fengyun-1c-debris",
        "lat": 4.25688861457536,
        "lon": -140.82187550627967,
        "alt_km": 799.1842285105668,
        "timestamp": "2025-12-04T21:36:16.153357+00:00",
        "meta_object_name": "FENGYUN 1C DEB",
        "meta_object_id": "1999-025BGJ",
        "meta_epoch": "2025-12-03T02:54:23.161824",
        "meta_mean_motion": 14.28572278,
        "meta_eccentricity": 0.00292595,
        "meta_inclination": 99.413,
        "meta_ra_of_asc_node": 36.553,
        "meta_arg_of_pericenter": 89.3587,
        "meta_mean_anomaly": 301.3086,
        "meta_ephemeris_type": 0,
        "meta_classification_type": "U",
        "meta_norad_cat_id": 31088,
        "meta_element_set_no": 999,
        "meta_rev_at_epoch": 96412,
        "meta_bstar": 0.0021893193,
        "meta_mean_motion_dot": 5.471e-05,
        "meta_mean_motion_ddot": 0,
        "tle_line1": "1 31088U 99025BGJ 25337.12110141  .00005471  00000+0  21893-2 0  9997",
        "tle_line2": "2 31088  99.4130  36.5530 0029259  89.3587 301.3086 14.28572278964126"
      },
      "geometry": {
        "type": "Point",
        "coordinates": [
          -140.82187550627967,
          4.25688861457536
        ]
      }
    },
    {
      "type": "Feature",
      "properties": {
        "norad_id": 31089,
        "name": "FENGYUN 1C DEB",
        "group": "fengyun-1c-debris",
        "lat": -29.511633641056708,
        "lon": 126.38237782787644,
        "alt_km": 956.493922471248,
        "timestamp": "2025-12-04T21:36:16.153367+00:00",
        "meta_object_name": "FENGYUN 1C DEB",
        "meta_object_id": "1999-025BGK",
        "meta_epoch": "2025-12-01T09:07:49.380096",
        "meta_mean_motion": 13.88281458,
        "meta_eccentricity": 0.02056627,
        "meta_inclination": 98.9488,
        "meta_ra_of_asc_node": 117.8872,
        "meta_arg_of_pericenter": 242.4516,
        "meta_mean_anomaly": 143.828,
        "meta_ephemeris_type": 0,
        "meta_classification_type": "U",
        "meta_norad_cat_id": 31089,
        "meta_element_set_no": 999,
        "meta_rev_at_epoch": 67902,
        "meta_bstar": 0.00085311791,
        "meta_mean_motion_dot": 1.165e-05,
        "meta_mean_motion_ddot": 0,
        "tle_line1": "1 31089U 99025BGK 25335.38043264  .00001165  00000+0  85312-3 0  9998",
        "tle_line2": "2 31089  98.9488 117.8872 0205662 242.4516 143.8280 13.88281458679026"
      },
      "geometry": {
        "type": "Point",
        "coordinates": [
          126.38237782787644,
          -29.511633641056708
        ]
      }
    },
    {
      "type": "Feature",
      "properties": {
        "norad_id": 31090,
        "name": "FENGYUN 1C DEB",
        "group": "fengyun-1c-debris",
        "lat": -65.33203659305798,
        "lon": 101.4239588501297,
        "alt_km": 503.4584520098133,
        "timestamp": "2025-12-04T21:36:16.153377+00:00",
        "meta_object_name": "FENGYUN 1C DEB",
        "meta_object_id": "1999-025BGL",
        "meta_epoch": "2025-12-04T06:13:25.441536",
        "meta_mean_motion": 15.31923846,
        "meta_eccentricity": 0.00574145,
        "meta_inclination": 98.9862,
        "meta_ra_of_asc_node": 80.4922,
        "meta_arg_of_pericenter": 162.296,
        "meta_mean_anomaly": 198.0296,
        "meta_ephemeris_type": 0,
        "meta_classification_type": "U",
        "meta_norad_cat_id": 31090,
        "meta_element_set_no": 999,
        "meta_rev_at_epoch": 708,
        "meta_bstar": 0.0036712113,
        "meta_mean_motion_dot": 0.00120739,
        "meta_mean_motion_ddot": 0,
        "tle_line1": "1 31090U 99025BGL 25338.25932224  .00120739  00000+0  36712-2 0  9990",
        "tle_line2": "2 31090  98.9862  80.4922 0057414 162.2960 198.0296 15.31923846  7081"
      },
      "geometry": {
        "type": "Point",
        "coordinates": [
          101.4239588501297,
          -65.33203659305798
        ]
      }
    },
    {
      "type": "Feature",
      "properties": {
        "norad_id": 31091,
        "name": "FENGYUN 1C DEB",
        "group": "fengyun-1c-debris",
        "lat": 76.5006665771014,
        "lon": 179.06688564439912,
        "alt_km": 1121.9314183059596,
        "timestamp": "2025-12-04T21:36:16.153387+00:00",
        "meta_object_name": "FENGYUN 1C DEB",
        "meta_object_id": "1999-025BGM",
        "meta_epoch": "2025-12-01T16:52:34.401216",
        "meta_mean_motion": 13.54120325,
        "meta_eccentricity": 0.02911009,
        "meta_inclination": 99.2236,
        "meta_ra_of_asc_node": 313.4843,
        "meta_arg_of_pericenter": 356.9866,
        "meta_mean_anomaly": 2.9511,
        "meta_ephemeris_type": 0,
        "meta_classification_type": "U",
        "meta_norad_cat_id": 31091,
        "meta_element_set_no": 999,
        "meta_rev_at_epoch": 61490,
        "meta_bstar": 0.0010649547,
        "meta_mean_motion_dot": 9.06e-06,
        "meta_mean_motion_ddot": 0,
        "tle_line1": "1 31091U 99025BGM 25335.70317594  .00000906  00000+0  10650-2 0  9991",
        "tle_line2": "2 31091  99.2236 313.4843 0291100 356.9866   2.9511 13.54120325614903"
      },
      "geometry": {
        "type": "Point",
        "coordinates": [
          179.06688564439912,
          76.5006665771014
        ]
      }
    },
    {
      "type": "Feature",
      "properties": {
        "norad_id": 31092,
        "name": "FENGYUN 1C DEB",
        "group": "fengyun-1c-debris",
        "lat": -42.666087754444334,
        "lon": 104.03301271608724,
        "alt_km": 1321.2976862573087,
        "timestamp": "2025-12-04T21:36:16.153397+00:00",
        "meta_object_name": "FENGYUN 1C DEB",
        "meta_object_id": "1999-025BGN",
        "meta_epoch": "2025-11-15T07:00:52.552224",
        "meta_mean_motion": 13.46401433,
        "meta_eccentricity": 0.03278725,
        "meta_inclination": 99.7115,
        "meta_ra_of_asc_node": 75.9227,
        "meta_arg_of_pericenter": 204.4209,
        "meta_mean_anomaly": 154.1084,
        "meta_ephemeris_type": 0,
        "meta_classification_type": "U",
        "meta_norad_cat_id": 31092,
        "meta_element_set_no": 999,
        "meta_rev_at_epoch": 91512,
        "meta_bstar": 0.0042000132,
        "meta_mean_motion_dot": 3.457e-05,
        "meta_mean_motion_ddot": 0,
        "tle_line1": "1 31092U 99025BGN 25319.29227491  .00003457  00000+0  42000-2 0  9992",
        "tle_line2": "2 31092  99.7115  75.9227 0327872 204.4209 154.1084 13.46401433915121"
      },
      "geometry": {
        "type": "Point",
        "coordinates": [
          104.03301271608724,
          -42.666087754444334
        ]
      }
    },
    {
      "type": "Feature",
      "properties": {
        "norad_id": 31093,
        "name": "FENGYUN 1C DEB",
        "group": "fengyun-1c-debris",
        "lat": -48.07262105622534,
        "lon": -11.096518690019279,
        "alt_km": 821.1806635696285,
        "timestamp": "2025-12-04T21:36:16.153407+00:00",
        "meta_object_name": "FENGYUN 1C DEB",
        "meta_object_id": "1999-025BGP",
        "meta_epoch": "2025-12-03T20:08:09.658752",
        "meta_mean_motion": 13.80616728,
        "meta_eccentricity": 0.0208171,
        "meta_inclination": 98.5951,
        "meta_ra_of_asc_node": 177.6322,
        "meta_arg_of_pericenter": 247.3765,
        "meta_mean_anomaly": 110.5253,
        "meta_ephemeris_type": 0,
        "meta_classification_type": "U",
        "meta_norad_cat_id": 31093,
        "meta_element_set_no": 999,
        "meta_rev_at_epoch": 94384,
        "meta_bstar": 0.00062625528,
        "meta_mean_motion_dot": 7.34e-06,
        "meta_mean_motion_ddot": 0,
        "tle_line1": "1 31093U 99025BGP 25337.83900068  .00000734  00000+0  62626-3 0  9993",
        "tle_line2": "2 31093  98.5951 177.6322 0208171 247.3765 110.5253 13.80616728943843"
      },
      "geometry": {
        "type": "Point",
        "coordinates": [
          -11.096518690019279,
          -48.07262105622534
        ]
      }
    },
    {
      "type": "Feature",
      "properties": {
        "norad_id": 31094,
        "name": "FENGYUN 1C DEB",
        "group": "fengyun-1c-debris",
        "lat": 66.75143606721653,
        "lon": 48.257117761109924,
        "alt_km": 823.3539116062611,
        "timestamp": "2025-12-04T21:36:16.153417+00:00",
        "meta_object_name": "FENGYUN 1C DEB",
        "meta_object_id": "1999-025BGQ",
        "meta_epoch": "2025-12-04T14:13:57.061056",
        "meta_mean_motion": 14.01990538,
        "meta_eccentricity": 0.01064141,
        "meta_inclination": 98.8568,
        "meta_ra_of_asc_node": 206.6778,
        "meta_arg_of_pericenter": 69.4772,
        "meta_mean_anomaly": 291.7776,
        "meta_ephemeris_type": 0,
        "meta_classification_type": "U",
        "meta_norad_cat_id": 31094,
        "meta_element_set_no": 999,
        "meta_rev_at_epoch": 95505,
        "meta_bstar": 0.0026418096,
        "meta_mean_motion_dot": 4.192e-05,
        "meta_mean_motion_ddot": 0,
        "tle_line1": "1 31094U 99025BGQ 25338.59302154  .00004192  00000+0  26418-2 0  9990",
        "tle_line2": "2 31094  98.8568 206.6778 0106414  69.4772 291.7776 14.01990538955053"
      },
      "geometry": {
        "type": "Point",
        "coordinates": [
          48.257117761109924,
          66.75143606721653
        ]
      }
    }
  ]
}